SCD 1                   
1 22490U 93009B   26185.08327847  .00000472  00000+0  78085-4 0  9993
2 22490  24.9690 103.2502 0041650 317.0510 162.0061 14.46125609763566
TECHSAT 1B (GO-32)      
1 25397U 98043D   26185.27390598  .00000070  00000+0  50222-4 0  9996
2 25397  99.0075 178.4639 0001833 132.1336 227.9998 14.24431724453763
SCD 2                   
1 25504U 98060A   26185.09925977  .00000404  00000+0  61839-4 0  9997
2 25504  24.9964 327.8650 0016575 302.3812 218.6765 14.45532201462774
DLR-TUBSAT              
1 25757U 99029B   26185.24040822  .00000111  00000+0  39184-4 0  9990
2 25757  98.6703 181.3060 0013162 301.0186  58.9715 14.52431286435724
TERRA                   
1 25994U 99068A   26185.06281961  .00000468  00000+0  10416-3 0  9998
2 25994  97.9446 233.9393 0002839 145.3783 240.2911 14.61116974412078
MAROC-TUBSAT            
1 27004U 01056D   26184.96242411 -.00000034  00000+0  14017-4 0  9999
2 27004  99.8091   2.1387 0020622  99.7281  62.7112 13.70263110228487
AQUA                    
1 27424U 02022A   26185.15250346  .00000935  00000+0  19549-3 0  9990
2 27424  98.4286 154.7752 0000690  86.9101 283.5268 14.62184659285756
SHIYAN-1 (SY-1)         
1 28220U 04012A   26185.20918121  .00018339  00000+0  55564-3 0  9998
2 28220  97.8685 264.3882 0004255 326.2717  33.8253 15.34206707213708
AURA                    
1 28376U 04026A   26185.10380578  .00000920  00000+0  19599-3 0  9998
2 28376  98.3424 141.6979 0001185  87.2387 272.8949 14.61355294168685
IRS-P5 (CARTOSAT-1)     
1 28649U 05017A   26185.05651699  .00001567  00000+0  16347-3 0  9997
2 28649  97.5304 207.3557 0002033  60.3852 299.7569 14.91095228146335
SINAH 1                 
1 28893U 05043D   26184.86556512  .00000426  00000+0  90310-4 0  9999
2 28893  98.2883 319.2875 0013611 220.0634 139.9566 14.64169529102968
RESURS-DK 1             
1 29228U 06021A   26184.42863314  .00002461  00000+0  14400-3 0  9998
2 29228  69.9339 297.5099 0006689 283.9720  76.0702 15.13284279105038
ARIRANG-2 (KOMPSAT-2)   
1 29268U 06031A   26185.31544159  .00000207  00000+0  47324-4 0  9993
2 29268  97.8307   8.9327 0015174  24.4736  99.2683 14.64670098 63984
LAPAN-TUBSAT            
1 29709U 07001A   26185.29078699  .00000806  00000+0  98819-4 0  9999
2 29709  98.1344 184.9009 0013252 125.9217 234.3229 14.85968083 53699
HAIYANG-1B              
1 31113U 07010A   26185.20531475  .00000113  00000+0  58815-4 0  9991
2 31113  98.3505 166.3911 0014118 146.3401 213.8683 14.31031222  3072
COSMO-SKYMED 1          
1 31598U 07023A   26185.24484084  .00002551  00000+0  22585-3 0  9991
2 31598  97.8852  17.2447 0001203  83.0288 277.1071 14.97184437 32342
TERRASAR-X              
1 31698U 07026A   26182.61687754  .00000688  00000+0  35949-4 0  9990
2 31698  97.4453 190.1187 0001948  88.1804 271.9654 15.19153219 55415
WORLDVIEW-1 (WV-1)      
1 32060U 07041A   26185.29375022  .00007773  00000+0  31938-3 0  9995
2 32060  97.3897 304.7949 0000917 288.7428  71.3710 15.24460749 45480
YAOGAN-3                
1 32289U 07055A   26185.30979120  .00003143  00000+0  32477-3 0  9990
2 32289  97.8144 215.0186 0001829  80.4072 279.7353 14.90850614  8421
COSMO-SKYMED 2          
1 32376U 07059A   26185.30870976  .00000482  00000+0  67110-4 0  9996
2 32376  97.8890   8.6585 0001330  91.0749 269.0616 14.82160003  4541
RADARSAT-2              
1 32382U 07061A   26185.32061664  .00000194  00000+0  92186-4 0  9995
2 32382  98.5775 192.0084 0001313  84.2418 275.8914 14.29981898968402
CARTOSAT-2A             
1 32783U 08021A   26185.29550838  .00000897  00000+0  12725-3 0  9999
2 32783  97.7619 233.4198 0013157  59.4813 300.7695 14.79264788981331
HUANJING 1A (HJ-1A)     
1 33320U 08041A   26185.29270750  .00001087  00000+0  13616-3 0  9993
2 33320  97.6689 170.4705 0020650  82.4381 277.9179 14.84026776960946
HUANJING 1B (HJ-1B)     
1 33321U 08041B   26185.26960720  .00001786  00000+0  22156-3 0  9999
2 33321  97.6526 173.5683 0037573 125.6659 234.8063 14.83350595960948
GEOEYE 1                
1 33331U 08042A   26185.16230333  .00000551  00000+0  11270-3 0  9994
2 33331  98.1332 258.8871 0004763  21.4273 338.7129 14.64642299952634
THEOS                   
1 33396U 08049A   26185.30097606 -.00000015  00000+0  13029-4 0  9993
2 33396  98.5559 242.0286 0001150  84.1256 276.0052 14.20135053920393
COSMO-SKYMED 3          
1 33412U 08054A   26185.27397951  .00003047  00000+0  20709-3 0  9999
2 33412  97.8263  44.1270 0014849 203.5417 156.5132 15.07059624959517
YAOGAN-4                
1 33446U 08061A   26185.10009997  .00001214  00000+0  15493-3 0  9994
2 33446  97.9307 118.4858 0014807  21.4526 338.7305 14.83234859948177
GOSAT (IBUKI)           
1 33492U 09002A   26185.04753272  .00000267  00000+0  55583-4 0  9998
2 33492  98.0906 295.9187 0001279  82.9048 277.2302 14.67539881933938
DEIMOS-1                
1 35681U 09041A   26185.27868041  .00000802  00000+0  12564-3 0  9995
2 35681  97.7425 341.7665 0002521 107.8014 252.3471 14.75255973909406
